{
  "type": "FeatureCollection",
  "features": [
    {
      "type": "Feature",
      "properties": {
        "norad_id": 31307,
        "name": "GALAXY 17 (G-17)",
        "group": "intelsat",
        "lat": 0.30230523346555715,
        "lon": -105.20562085320077,
        "alt_km": 35761.49269908251,
        "timestamp": "2025-12-03T17:47:50.379809+00:00",
        "meta_object_name": "GALAXY 17 (G-17)",
        "meta_object_id": "2007-016B",
        "meta_epoch": "2025-12-03T09:55:35.228352",
        "meta_mean_motion": 1.00270439,
        "meta_eccentricity": 0.0006113,
        "meta_inclination": 2.4746,
        "meta_ra_of_asc_node": 82.392,
        "meta_arg_of_pericenter": 156.6812,
        "meta_mean_anomaly": 257.3305,
        "meta_ephemeris_type": 0,
        "meta_classification_type": "U",
        "meta_norad_cat_id": 31307,
        "meta_element_set_no": 999,
        "meta_rev_at_epoch": 6784,
        "meta_bstar": 0,
        "meta_mean_motion_dot": -1.89e-06,
        "meta_mean_motion_ddot": 0,
        "tle_line1": "1 31307U 07016B   25337.41360218 -.00000189  00000+0  00000+0 0  9990",
        "tle_line2": "2 31307   2.4746  82.3920 0006113 156.6812 257.3305  1.00270439 67849"
      },
      "geometry": {
        "type": "Point",
        "coordinates": [
          -105.20562085320077,
          0.30230523346555715
        ]
      }
    },
    {
      "type": "Feature",
      "properties": {
        "norad_id": 31862,
        "name": "DIRECTV 10",
        "group": "intelsat",
        "lat": -0.019959638046861145,
        "lon": -123.03150319335528,
        "alt_km": 35785.514276594826,
        "timestamp": "2025-12-03T17:47:50.379821+00:00",
        "meta_object_name": "DIRECTV 10",
        "meta_object_id": "2007-032A",
        "meta_epoch": "2025-12-03T08:07:45.558336",
        "meta_mean_motion": 1.00270968,
        "meta_eccentricity": 2.91e-05,
        "meta_inclination": 0.0057,
        "meta_ra_of_asc_node": 272.492,
        "meta_arg_of_pericenter": 275.3626,
        "meta_mean_anomaly": 263.7199,
        "meta_ephemeris_type": 0,
        "meta_classification_type": "U",
        "meta_norad_cat_id": 31862,
        "meta_element_set_no": 999,
        "meta_rev_at_epoch": 4363,
        "meta_bstar": 0,
        "meta_mean_motion_dot": -8.4e-07,
        "meta_mean_motion_ddot": 0,
        "tle_line1": "1 31862U 07032A   25337.33872174 -.00000084  00000+0  00000+0 0  9998",
        "tle_line2": "2 31862   0.0057 272.4920 0000291 275.3626 263.7199  1.00270968 43639"
      },
      "geometry": {
        "type": "Point",
        "coordinates": [
          -123.03150319335528,
          -0.019959638046861145
        ]
      }
    },
    {
      "type": "Feature",
      "properties": {
        "norad_id": 32253,
        "name": "INTELSAT 11 (IS-11)",
        "group": "intelsat",
        "lat": 0.8142036638713265,
        "lon": -114.88690599703163,
        "alt_km": 36093.18824581955,
        "timestamp": "2025-12-03T17:47:50.379833+00:00",
        "meta_object_name": "INTELSAT 11 (IS-11)",
        "meta_object_id": "2007-044B",
        "meta_epoch": "2025-12-03T09:53:12.955200",
        "meta_mean_motion": 0.99047262,
        "meta_eccentricity": 0.0009282,
        "meta_inclination": 3.0539,
        "meta_ra_of_asc_node": 81.0808,
        "meta_arg_of_pericenter": 161.1046,
        "meta_mean_anomaly": 245.3925,
        "meta_ephemeris_type": 0,
        "meta_classification_type": "U",
        "meta_norad_cat_id": 32253,
        "meta_element_set_no": 999,
        "meta_rev_at_epoch": 6651,
        "meta_bstar": 0,
        "meta_mean_motion_dot": 7e-08,
        "meta_mean_motion_ddot": 0,
        "tle_line1": "1 32253U 07044B   25337.41195550  .00000007  00000+0  00000+0 0  9995",
        "tle_line2": "2 32253   3.0539  81.0808 0009282 161.1046 245.3925  0.99047262 66519"
      },
      "geometry": {
        "type": "Point",
        "coordinates": [
          -114.88690599703163,
          0.8142036638713265
        ]
      }
    },
    {
      "type": "Feature",
      "properties": {
        "norad_id": 32388,
        "name": "HORIZONS-2",
        "group": "intelsat",
        "lat": -0.12941624631468543,
        "lon": -94.01787656199159,
        "alt_km": 35765.00372870705,
        "timestamp": "2025-12-03T17:47:50.379845+00:00",
        "meta_object_name": "HORIZONS-2",
        "meta_object_id": "2007-063B",
        "meta_epoch": "2025-12-03T09:58:49.916064",
        "meta_mean_motion": 1.00272062,
        "meta_eccentricity": 0.0004974,
        "meta_inclination": 2.0954,
        "meta_ra_of_asc_node": 83.0628,
        "meta_arg_of_pericenter": 180.814,
        "meta_mean_anomaly": 244.5524,
        "meta_ephemeris_type": 0,
        "meta_classification_type": "U",
        "meta_norad_cat_id": 32388,
        "meta_element_set_no": 999,
        "meta_rev_at_epoch": 6585,
        "meta_bstar": 0,
        "meta_mean_motion_dot": -2.36e-06,
        "meta_mean_motion_ddot": 0,
        "tle_line1": "1 32388U 07063B   25337.41585551 -.00000236  00000+0  00000+0 0  9994",
        "tle_line2": "2 32388   2.0954  83.0628 0004974 180.8140 244.5524  1.00272062 65859"
      },
      "geometry": {
        "type": "Point",
        "coordinates": [
          -94.01787656199159,
          -0.12941624631468543
        ]
      }
    },
    {
      "type": "Feature",
      "properties": {
        "norad_id": 32729,
        "name": "DIRECTV 11",
        "group": "intelsat",
        "lat": -0.008502747303988272,
        "lon": -119.43312363514625,
        "alt_km": 35786.4653834824,
        "timestamp": "2025-12-03T17:47:50.379857+00:00",
        "meta_object_name": "DIRECTV 11",
        "meta_object_id": "2008-013A",
        "meta_epoch": "2025-12-03T08:08:52.950336",
        "meta_mean_motion": 1.00268433,
        "meta_eccentricity": 2.81e-05,
        "meta_inclination": 0.0112,
        "meta_ra_of_asc_node": 227.5771,
        "meta_arg_of_pericenter": 311.5736,
        "meta_mean_anomaly": 276.3071,
        "meta_ephemeris_type": 0,
        "meta_classification_type": "U",
        "meta_norad_cat_id": 32729,
        "meta_element_set_no": 999,
        "meta_rev_at_epoch": 4363,
        "meta_bstar": 0,
        "meta_mean_motion_dot": -1.07e-06,
        "meta_mean_motion_ddot": 0,
        "tle_line1": "1 32729U 08013A   25337.33950174 -.00000107  00000+0  00000+0 0  9994",
        "tle_line2": "2 32729   0.0112 227.5771 0000281 311.5736 276.3071  1.00268433 43636"
      },
      "geometry": {
        "type": "Point",
        "coordinates": [
          -119.43312363514625,
          -0.008502747303988272
        ]
      }
    },
    {
      "type": "Feature",
      "properties": {
        "norad_id": 32951,
        "name": "GALAXY 18 (G-18)",
        "group": "intelsat",
        "lat": -0.02551919752065728,
        "lon": -143.25687909953388,
        "alt_km": 35775.1480147168,
        "timestamp": "2025-12-03T17:47:50.379869+00:00",
        "meta_object_name": "GALAXY 18 (G-18)",
        "meta_object_id": "2008-024A",
        "meta_epoch": "2025-12-03T08:01:53.619168",
        "meta_mean_motion": 1.00272272,
        "meta_eccentricity": 0.0003386,
        "meta_inclination": 0.018,
        "meta_ra_of_asc_node": 10.9677,
        "meta_arg_of_pericenter": 247.1815,
        "meta_mean_anomaly": 171.7557,
        "meta_ephemeris_type": 0,
        "meta_classification_type": "U",
        "meta_norad_cat_id": 32951,
        "meta_element_set_no": 999,
        "meta_rev_at_epoch": 4388,
        "meta_bstar": 0,
        "meta_mean_motion_dot": 4.4e-07,
        "meta_mean_motion_ddot": 0,
        "tle_line1": "1 32951U 08024A   25337.33464837  .00000044  00000+0  00000+0 0  9998",
        "tle_line2": "2 32951   0.0180  10.9677 0003386 247.1815 171.7557  1.00272272 43888"
      },
      "geometry": {
        "type": "Point",
        "coordinates": [
          -143.25687909953388,
          -0.02551919752065728
        ]
      }
    },
    {
      "type": "Feature",
      "properties": {
        "norad_id": 33153,
        "name": "INTELSAT 25 (IS-25)",
        "group": "intelsat",
        "lat": -1.5797199456114104,
        "lon": -51.700104645701465,
        "alt_km": 35771.39512542171,
        "timestamp": "2025-12-03T17:47:50.379880+00:00",
        "meta_object_name": "INTELSAT 25 (IS-25)",
        "meta_object_id": "2008-034A",
        "meta_epoch": "2025-12-03T08:28:06.107808",
        "meta_mean_motion": 1.00271413,
        "meta_eccentricity": 0.0005342,
        "meta_inclination": 2.2016,
        "meta_ra_of_asc_node": 82.7527,
        "meta_arg_of_pericenter": 177.2563,
        "meta_mean_anomaly": 267.969,
        "meta_ephemeris_type": 0,
        "meta_classification_type": "U",
        "meta_norad_cat_id": 33153,
        "meta_element_set_no": 999,
        "meta_rev_at_epoch": 6373,
        "meta_bstar": 0,
        "meta_mean_motion_dot": -2.06e-06,
        "meta_mean_motion_ddot": 0,
        "tle_line1": "1 33153U 08034A   25337.35284847 -.00000206  00000+0  00000+0 0  9998",
        "tle_line2": "2 33153   2.2016  82.7527 0005342 177.2563 267.9690  1.00271413 63731"
      },
      "geometry": {
        "type": "Point",
        "coordinates": [
          -51.700104645701465,
          -1.5797199456114104
        ]
      }
    }
  ]
}